postcode,suburb,state,dc,type,lat,lon
3000,MELBOURNE,VIC,CITY DELIVERY CENTRE,Delivery Area,-37.814563,144.970267
3001,MELBOURNE,VIC,CITY MAIL PROCESSING CENTRE,Post Office Boxes,-38.365017,144.76592
3002,EAST MELBOURNE,VIC,CITY DELIVERY CENTRE,Delivery Area,-37.81664,144.987811
3003,WEST MELBOURNE,VIC,CITY DELIVERY CENTRE,Delivery Area,-37.806255,144.941123
3004,MELBOURNE,VIC,CITY DELIVERY CENTRE,Delivery Area,-37.837324,144.976335
3005,WORLD TRADE CENTRE,VIC,CITY DELIVERY CENTRE,Delivery Area,-37.822262,144.954856
3006,SOUTHBANK,VIC,SOUTH MELBOURNE DC,Delivery Area,-37.823258,144.965926
3008,DOCKLANDS,VIC,CITY DELIVERY CENTRE,Delivery Area,-37.814719,144.948039
3010,UNIVERSITY OF MELBOURNE,VIC,CARLTON DC,Delivery Area,-37.796152,144.961351
3011,FOOTSCRAY,VIC,WEST FOOTSCRAY DC,Delivery Area,-37.79977,144.899587
3011,SEDDON,VIC,WEST FOOTSCRAY DC,Delivery Area,-37.808769,144.895486
3011,SEDDON WEST,VIC,WEST FOOTSCRAY DC,Delivery Area,-37.795059,144.866197
3012,BROOKLYN,VIC,WEST FOOTSCRAY DC,Delivery Area,-37.814624,144.847108
3012,KINGSVILLE,VIC,WEST FOOTSCRAY DC,Delivery Area,-37.812635,144.881803
3012,KINGSVILLE WEST,VIC,WEST FOOTSCRAY DC,Delivery Area,-37.795059,144.866197
3012,MAIDSTONE,VIC,WEST FOOTSCRAY DC,Delivery Area,-37.782096,144.874299
3012,TOTTENHAM,VIC,WEST FOOTSCRAY DC,Delivery Area,-37.799065,144.857829
3012,WEST FOOTSCRAY,VIC,WEST FOOTSCRAY DC,Delivery Area,-37.797701,144.879924
3013,YARRAVILLE,VIC,WEST FOOTSCRAY DC,Delivery Area,-37.816178,144.889774
3013,YARRAVILLE WEST,VIC,WEST FOOTSCRAY DC,Delivery Area,-37.818019,144.883582
3015,NEWPORT,VIC,NEWPORT DC,Delivery Area,-37.842477,144.883145
3015,SOUTH KINGSVILLE,VIC,NEWPORT DC,Delivery Area,-37.833627,144.870742
3015,SPOTSWOOD,VIC,NEWPORT DC,Delivery Area,-37.82967,144.885078
3016,WILLIAMSTOWN,VIC,NEWPORT DC,Delivery Area,-37.856902,144.897698
3016,WILLIAMSTOWN NORTH,VIC,NEWPORT DC,Delivery Area,-37.857681,144.887041
3018,ALTONA,VIC,NEWPORT DC,Delivery Area,-37.869275,144.830286
3018,SEAHOLME,VIC,NEWPORT DC,Delivery Area,-37.867992,144.843609
3019,BRAYBROOK,VIC,WEST FOOTSCRAY DC,Delivery Area,-37.779309,144.855359
3019,BRAYBROOK NORTH,VIC,WEST FOOTSCRAY DC,Delivery Area,-37.84536,144.894555
3019,ROBINSON,VIC,WEST FOOTSCRAY DC,Delivery Area,-37.834094,145.040941
3020,ALBION,VIC,SUNSHINE DC,Delivery Area,-37.775954,144.819395
3020,GLENGALA,VIC,SUNSHINE DC,Delivery Area,-37.788346,144.809505
3020,SUNSHINE NORTH,VIC,SUNSHINE DC,Delivery Area,-37.768904,144.830258
3020,SUNSHINE WEST,VIC,SUNSHINE DC,Delivery Area,-37.79983,144.81845
3021,ALBANVALE,VIC,ST ALBANS DC,Delivery Area,-37.745934,144.770027
3021,KEALBA,VIC,ST ALBANS DC,Delivery Area,-37.742331,144.825918
3021,KINGS PARK,VIC,ST ALBANS DC,Delivery Area,-37.734277,144.780872
3021,ST ALBANS,VIC,ST ALBANS DC,Delivery Area,-37.745063,144.799626
3022,ARDEER,VIC,SUNSHINE DC,Delivery Area,-37.78292,144.801018
3022,DEER PARK EAST,VIC,SUNSHINE DC,Delivery Area,-37.740815,144.797867
3023,BURNSIDE,VIC,SUNSHINE DC,Delivery Area,-37.753381,144.752618
3023,BURNSIDE HEIGHTS,VIC,SUNSHINE DC,Delivery Area,-37.771039,144.772248
3023,CAIRNLEA,VIC,SUNSHINE DC,Delivery Area,-37.762076,144.754169
3023,CAROLINE SPRINGS,VIC,SUNSHINE DC,Delivery Area,-37.74124,144.736311
3023,DEER PARK,VIC,SUNSHINE DC,Delivery Area,-37.770312,144.77472
3023,DEER PARK NORTH,VIC,SUNSHINE DC,Delivery Area,-37.744466,144.751767
3023,RAVENHALL,VIC,SUNSHINE DC,Delivery Area,-37.766501,144.738709
3024,MAMBOURIN,VIC,HOPPERS CROSSING DEL CENTRE,Delivery Area,-37.899873,144.556552
3024,MOUNT COTTRELL,VIC,HOPPERS CROSSING DEL CENTRE,Delivery Area,-37.76516,144.609501
3024,WYNDHAM VALE,VIC,HOPPERS CROSSING DEL CENTRE,Delivery Area,-37.891641,144.629467
3025,ALTONA EAST,VIC,NEWPORT DC,Delivery Area,-37.835657,144.85995
3025,ALTONA GATE,VIC,NEWPORT DC,Delivery Area,-37.825297,144.842988
3025,ALTONA NORTH,VIC,NEWPORT DC,Delivery Area,-37.842879,144.850049
3026,LAVERTON NORTH,VIC,HOPPERS CROSSING DEL CENTRE,Delivery Area,-37.841653,144.795959
3027,LAVERTON RAAF,VIC,HOPPERS CROSSING DEL CENTRE,Delivery Area,-37.859941,144.760517
3028,ALTONA MEADOWS,VIC,HOPPERS CROSSING DEL CENTRE,Delivery Area,-37.871632,144.778084
3028,LAVERTON,VIC,HOPPERS CROSSING DEL CENTRE,Delivery Area,-37.866939,144.761748
3028,SEABROOK,VIC,HOPPERS CROSSING DEL CENTRE,Delivery Area,-37.877626,144.75777
3029,HOPPERS CROSSING,VIC,HOPPERS CROSSING DEL CENTRE,Delivery Area,-37.882636,144.700297
3029,TARNEIT,VIC,HOPPERS CROSSING DEL CENTRE,Delivery Area,-37.823738,144.692893
3029,TRUGANINA,VIC,HOPPERS CROSSING DEL CENTRE,Delivery Area,-37.825004,144.748931
3030,COCOROC,VIC,HOPPERS CROSSING DEL CENTRE,Delivery Area,-37.969994,144.582987
3030,DERRIMUT,VIC,HOPPERS CROSSING DEL CENTRE,Delivery Area,-37.797549,144.771097
3030,POINT COOK,VIC,HOPPERS CROSSING DEL CENTRE,Delivery Area,-37.914616,144.751038
3030,QUANDONG,VIC,HOPPERS CROSSING DEL CENTRE,Delivery Area,-37.838725,144.554915
3030,WERRIBEE,VIC,HOPPERS CROSSING DEL CENTRE,Delivery Area,-37.903337,144.657731
3030,WERRIBEE SOUTH,VIC,HOPPERS CROSSING DEL CENTRE,Delivery Area,-37.903337,144.657731
3037,DELAHEY,VIC,ST ALBANS DC,Delivery Area,-37.715579,144.780474
3037,HILLSIDE,VIC,ST ALBANS DC,Delivery Area,-37.691437,144.74002
3037,SYDENHAM,VIC,ST ALBANS DC,Delivery Area,-37.70004,144.764617
3037,TAYLORS HILL,VIC,ST ALBANS DC,Delivery Area,-37.710381,144.766791
3038,KEILOR DOWNS,VIC,ST ALBANS DC,Delivery Area,-37.725726,144.811346
3038,KEILOR LODGE,VIC,ST ALBANS DC,Delivery Area,-37.695768,144.797032
3038,TAYLORS LAKES,VIC,ST ALBANS DC,Delivery Area,-37.698758,144.78766
3038,WATERGARDENS,VIC,ST ALBANS DC,Delivery Area,-37.698952,144.777576
3044,PASCOE VALE,VIC,PRESTON DC,Delivery Area,-37.727568,144.939122
3044,PASCOE VALE SOUTH,VIC,PRESTON DC,Delivery Area,-37.739198,144.945722
3046,GLENROY,VIC,PRESTON DC,Delivery Area,-37.704581,144.915758
3046,HADFIELD,VIC,PRESTON DC,Delivery Area,-37.707238,144.93832
3046,OAK PARK,VIC,PRESTON DC,Delivery Area,-37.71817,144.919959
3047,BROADMEADOWS,VIC,SOMERTON DC,Delivery Area,-37.680792,144.921009
3047,DALLAS,VIC,SOMERTON DC,Delivery Area,-37.673333,144.931141
3047,JACANA,VIC,SOMERTON DC,Delivery Area,-37.690301,144.915729
3048,COOLAROO,VIC,SOMERTON DC,Delivery Area,-37.651811,144.930466
3048,MEADOW HEIGHTS,VIC,SOMERTON DC,Delivery Area,-37.64986,144.922104
3049,ATTWOOD,VIC,SOMERTON DC,Delivery Area,-37.667515,144.88529
3049,WESTMEADOWS,VIC,SOMERTON DC,Delivery Area,-37.673551,144.90086
3049,CALDER PARK,VIC,ST ALBANS DC,Delivery Area,-37.700648,144.755896
3050,ROYAL MELBOURNE HOSPITAL,VIC,CARLTON DC,Delivery Area,-37.798631,144.955627
3051,NORTH MELBOURNE,VIC,CITY DELIVERY CENTRE,Delivery Area,-37.905996,145.056254
3052,MELBOURNE UNIVERSITY,VIC,CARLTON DC,Delivery Area,-37.796152,144.961351
3052,PARKVILLE,VIC,CARLTON DC,Delivery Area,-37.788531,144.947731
3053,CARLTON,VIC,CARLTON DC,Delivery Area,-37.784337,144.969747
3053,CARLTON SOUTH,VIC,CARLTON DC,Delivery Area,-37.778987,145.0026
3054,CARLTON NORTH,VIC,CARLTON DC,Delivery Area,-37.784337,144.969747
3054,PRINCES HILL,VIC,CARLTON DC,Delivery Area,-37.780995,144.962792
3055,BRUNSWICK SOUTH,VIC,PRESTON DC,Delivery Area,-37.772049,144.944635
3055,BRUNSWICK WEST,VIC,PRESTON DC,Delivery Area,-37.762489,144.961176
3055,MOONEE VALE,VIC,PRESTON DC,Delivery Area,-37.763919,144.940314
3055,MORELAND WEST,VIC,PRESTON DC,Delivery Area,-37.713902,144.937112
3056,BRUNSWICK,VIC,PRESTON DC,Delivery Area,-37.764829,144.943778
3056,BRUNSWICK LOWER,VIC,PRESTON DC,Delivery Area,-37.759717,144.95137
3056,BRUNSWICK NORTH,VIC,PRESTON DC,Delivery Area,-37.760071,144.972291
3057,BRUNSWICK EAST,VIC,PRESTON DC,Delivery Area,-37.76491,144.979567
3058,BATMAN,VIC,PRESTON DC,Delivery Area,-37.733524,144.962837
3058,COBURG,VIC,PRESTON DC,Delivery Area,-37.743188,144.966279
3058,COBURG NORTH,VIC,PRESTON DC,Delivery Area,-37.730842,144.971699
3058,MERLYNSTON,VIC,PRESTON DC,Delivery Area,-37.720932,144.96131
3058,MORELAND,VIC,PRESTON DC,Delivery Area,-37.748315,144.961827
3059,GREENVALE,VIC,SOMERTON DC,Delivery Area,-37.642984,144.88872
3060,FAWKNER,VIC,PRESTON DC,Delivery Area,-37.759823,144.89571
3060,FAWKNER EAST,VIC,PRESTON DC,Delivery Area,-37.709159,144.950411
3060,FAWKNER NORTH,VIC,PRESTON DC,Delivery Area,-37.705055,144.944577
3061,CAMPBELLFIELD,VIC,SOMERTON DC,Delivery Area,-37.643746,144.951369
3062,SOMERTON,VIC,SOMERTON DC,Delivery Area,-37.642563,144.944259
3063,OAKLANDS JUNCTION,VIC,SOMERTON DC,Delivery Area,-37.629826,144.839244
3063,YUROKE,VIC,SOMERTON DC,Delivery Area,-37.589589,144.879406
3064,CRAIGIEBURN,VIC,SOMERTON DC,Delivery Area,-37.598975,144.941287
3064,DONNYBROOK,VIC,SOMERTON DC,Delivery Area,-37.542028,144.963579
3064,KALKALLO,VIC,SOMERTON DC,Delivery Area,-37.529372,144.947106
3064,MICKLEHAM,VIC,SOMERTON DC,Delivery Area,-37.560864,144.879078
3064,ROXBURGH PARK,VIC,SOMERTON DC,Delivery Area,-37.636795,144.932604
3065,FITZROY,VIC,FITZROY DC,Delivery Area,-37.800917,144.979165
3066,COLLINGWOOD,VIC,FITZROY DC,Delivery Area,-37.800366,144.984149
3066,COLLINGWOOD NORTH,VIC,FITZROY DC,Delivery Area,-37.789805,144.990796
3067,ABBOTSFORD,VIC,FITZROY DC,Delivery Area,-37.801781,144.998752
3068,CLIFTON HILL,VIC,FITZROY DC,Delivery Area,-37.788118,144.992067
3068,FITZROY NORTH,VIC,FITZROY DC,Delivery Area,-37.7834,144.984688
3070,NORTHCOTE,VIC,PRESTON DC,Delivery Area,-37.769857,144.995276
3070,NORTHCOTE SOUTH,VIC,PRESTON DC,Delivery Area,-37.779039,145.006746
3071,THORNBURY,VIC,PRESTON DC,Delivery Area,-37.75504,144.998589
3072,NORTHLAND CENTRE,VIC,PRESTON DC,Delivery Area,-37.742047,145.027716
3072,PRESTON,VIC,PRESTON DC,Delivery Area,-37.738736,145.000515
3072,PRESTON LOWER,VIC,PRESTON DC,Delivery Area,-37.743606,145.019624
3072,PRESTON SOUTH,VIC,PRESTON DC,Delivery Area,-37.743356,145.009123
3072,PRESTON WEST,VIC,PRESTON DC,Delivery Area,-37.736855,145.003005
3073,KEON PARK,VIC,PRESTON DC,Delivery Area,-37.694672,145.011907
3073,RESERVOIR,VIC,PRESTON DC,Delivery Area,-37.716897,145.006985
3073,RESERVOIR EAST,VIC,PRESTON DC,Delivery Area,-37.722243,145.011124
3073,RESERVOIR NORTH,VIC,PRESTON DC,Delivery Area,-37.723105,145.018195
3073,RESERVOIR SOUTH,VIC,PRESTON DC,Delivery Area,-37.714796,144.944655
3074,THOMASTOWN,VIC,EPPING DC,Delivery Area,-37.680338,145.014287
3075,LALOR,VIC,EPPING DC,Delivery Area,-37.665857,145.017194
3075,LALOR PLAZA,VIC,EPPING DC,Delivery Area,-37.673141,145.016634
3076,EPPING,VIC,EPPING DC,Delivery Area,-37.638363,145.009493
3078,ALPHINGTON,VIC,PRESTON DC,Delivery Area,-37.780767,145.03116
3078,FAIRFIELD,VIC,PRESTON DC,Delivery Area,-37.776946,145.018479
3079,IVANHOE,VIC,HEIDELBERG WEST DEL CENTRE,Delivery Area,-37.76964,145.041425
3079,IVANHOE EAST,VIC,HEIDELBERG WEST DEL CENTRE,Delivery Area,-37.77283,145.059401
3079,IVANHOE NORTH,VIC,HEIDELBERG WEST DEL CENTRE,Delivery Area,-37.723105,145.018195
3081,BELLFIELD,VIC,HEIDELBERG WEST DEL CENTRE,Delivery Area,-37.751819,145.045449
3081,HEIDELBERG HEIGHTS,VIC,HEIDELBERG WEST DEL CENTRE,Delivery Area,-37.742268,145.048873
3081,HEIDELBERG WEST,VIC,HEIDELBERG WEST DEL CENTRE,Delivery Area,-37.74944,145.0414
3082,MILL PARK,VIC,EPPING DC,Delivery Area,-37.667957,145.060693
3083,BUNDOORA,VIC,BUNDOORA DC,Delivery Area,-37.70132,145.071967
3083,KINGSBURY,VIC,BUNDOORA DC,Delivery Area,-37.714064,145.035103
3083,LA TROBE UNIVERSITY,VIC,BUNDOORA DC,Delivery Area,-37.721328,145.047012
3084,BANYULE,VIC,HEIDELBERG WEST DEL CENTRE,Delivery Area,-37.744219,145.08793
3084,EAGLEMONT,VIC,HEIDELBERG WEST DEL CENTRE,Delivery Area,-37.762519,145.068208
3084,HEIDELBERG,VIC,HEIDELBERG WEST DEL CENTRE,Delivery Area,-37.756341,145.067145
3084,ROSANNA,VIC,HEIDELBERG WEST DEL CENTRE,Delivery Area,-37.742893,145.065044
3084,VIEWBANK,VIC,HEIDELBERG WEST DEL CENTRE,Delivery Area,-37.739262,145.096424
3085,MACLEOD,VIC,HEIDELBERG WEST DEL CENTRE,Delivery Area,-37.726038,145.068457
3085,MACLEOD WEST,VIC,HEIDELBERG WEST DEL CENTRE,Delivery Area,-37.736354,145.038518
3085,YALLAMBIE,VIC,HEIDELBERG WEST DEL CENTRE,Delivery Area,-37.727482,145.102309
3086,LA TROBE UNIVERSITY,VIC,BUNDOORA DC,Delivery Area,-37.721328,145.047012
3087,WATSONIA,VIC,BUNDOORA DC,Delivery Area,-37.712531,145.082098
3087,WATSONIA NORTH,VIC,BUNDOORA DC,Delivery Area,-37.698352,145.084586
3088,BRIAR HILL,VIC,BUNDOORA DC,Delivery Area,-37.709483,145.120135
3088,GREENSBOROUGH,VIC,BUNDOORA DC,Delivery Area,-37.704622,145.103024
3088,SAINT HELENA,VIC,BUNDOORA DC,Delivery Area,-37.690585,145.130847
3093,LOWER PLENTY,VIC,BUNDOORA DC,Delivery Area,-37.730758,145.088118
3094,MONTMORENCY,VIC,BUNDOORA DC,Delivery Area,-37.715294,145.121583
3095,ELTHAM,VIC,RESEARCH DELIVERY CENTRE,Delivery Area,-37.71383,145.148537
3095,ELTHAM NORTH,VIC,RESEARCH DELIVERY CENTRE,Delivery Area,-37.69401,145.147506
3095,RESEARCH,VIC,RESEARCH DELIVERY CENTRE,Delivery Area,-37.703602,145.180636
3097,BEND OF ISLANDS,VIC,RESEARCH DELIVERY CENTRE,Delivery Area,-37.697232,145.284134
3097,KANGAROO GROUND,VIC,RESEARCH DELIVERY CENTRE,Delivery Area,-37.692032,145.215528
3097,WATSONS CREEK,VIC,RESEARCH DELIVERY CENTRE,Delivery Area,-37.67058,145.256526
3101,COTHAM,VIC,DEEPDENE DC,Delivery Area,-37.808497,145.044922
3101,KEW,VIC,DEEPDENE DC,Delivery Area,-37.797982,145.053727
3102,KEW EAST,VIC,DEEPDENE DC,Delivery Area,-37.796246,145.049017
3103,BALWYN,VIC,DEEPDENE DC,Delivery Area,-37.809701,145.082303
3103,BALWYN EAST,VIC,DEEPDENE DC,Delivery Area,-37.807312,145.096698
3104,BALWYN NORTH,VIC,DEEPDENE DC,Delivery Area,-37.792835,145.071727
3104,GREYTHORN,VIC,DEEPDENE DC,Delivery Area,-37.796947,145.098434
3105,BULLEEN,VIC,TEMPLESTOWE DC,Delivery Area,-37.768554,145.079543
3106,TEMPLESTOWE,VIC,TEMPLESTOWE DC,Delivery Area,-37.768882,145.117873
3107,TEMPLESTOWE LOWER,VIC,TEMPLESTOWE DC,Delivery Area,-37.7563,145.102997
3108,DONCASTER,VIC,TEMPLESTOWE DC,Delivery Area,-37.783031,145.122517
3109,DONCASTER EAST,VIC,TEMPLESTOWE DC,Delivery Area,-37.811994,145.19474
3109,DONCASTER HEIGHTS,VIC,TEMPLESTOWE DC,Delivery Area,-37.788827,145.159247
3109,THE PINES,VIC,TEMPLESTOWE DC,Delivery Area,-37.757762,145.169626
3111,DONVALE,VIC,TEMPLESTOWE DC,Delivery Area,-38.183899,144.468019
3121,BURNLEY,VIC,RICHMOND DC,Delivery Area,-37.826869,145.007098
3121,BURNLEY NORTH,VIC,RICHMOND DC,Delivery Area,-37.829382,145.007165
3121,CREMORNE,VIC,RICHMOND DC,Delivery Area,-37.829719,144.990346
3121,RICHMOND,VIC,RICHMOND DC,Delivery Area,-37.818587,144.999181
3121,RICHMOND EAST,VIC,RICHMOND DC,Delivery Area,-37.826421,144.996431
3121,RICHMOND NORTH,VIC,RICHMOND DC,Delivery Area,-37.816323,145.011044
3121,RICHMOND SOUTH,VIC,RICHMOND DC,Delivery Area,-37.814951,144.991415
3124,CAMBERWELL,VIC,DEEPDENE DC,Delivery Area,-37.824818,145.057957
3124,CAMBERWELL NORTH,VIC,DEEPDENE DC,Delivery Area,-37.825705,145.068352
3124,CAMBERWELL SOUTH,VIC,DEEPDENE DC,Delivery Area,-37.825705,145.068352
3124,CAMBERWELL WEST,VIC,DEEPDENE DC,Delivery Area,-37.840088,145.093634
3124,HARTWELL,VIC,DEEPDENE DC,Delivery Area,-37.843985,145.075562
3124,MIDDLE CAMBERWELL,VIC,DEEPDENE DC,Delivery Area,-37.844,145.056955
3125,BENNETTSWOOD,VIC,BURWOOD DC,Delivery Area,-37.844825,145.115681
3125,BURWOOD,VIC,BURWOOD DC,Delivery Area,-37.852805,145.151909
3125,SURREY HILLS SOUTH,VIC,BURWOOD DC,Delivery Area,-37.835047,145.096407
3126,CAMBERWELL EAST,VIC,DEEPDENE DC,Delivery Area,-37.840195,145.094524
3126,CANTERBURY,VIC,DEEPDENE DC,Delivery Area,-37.824249,145.073114
3127,MONT ALBERT,VIC,BOX HILL DC,Delivery Area,-37.821232,145.104996
3127,SURREY HILLS,VIC,BOX HILL DC,Delivery Area,-37.825077,145.097412
3127,SURREY HILLS NORTH,VIC,BOX HILL DC,Delivery Area,-37.834288,145.096516
3128,BOX HILL,VIC,BOX HILL DC,Delivery Area,-37.817455,145.119314
3128,BOX HILL CENTRAL,VIC,BOX HILL DC,Delivery Area,-37.819107,145.121273
3128,BOX HILL SOUTH,VIC,BOX HILL DC,Delivery Area,-37.828744,145.121843
3128,HOUSTON,VIC,BOX HILL DC,Delivery Area,-37.844706,145.130113
3128,WATTLE PARK,VIC,BOX HILL DC,Delivery Area,-37.839076,145.104165
3129,BOX HILL NORTH,VIC,BOX HILL DC,Delivery Area,-37.801761,145.126869
3129,KERRIMUIR,VIC,BOX HILL DC,Delivery Area,-37.805767,145.136413
3129,MONT ALBERT NORTH,VIC,BOX HILL DC,Delivery Area,-37.807247,145.11205
3141,CHAPEL STREET NORTH,VIC,RICHMOND DC,Delivery Area,-36.990185,144.063338
3141,SOUTH YARRA,VIC,RICHMOND DC,Delivery Area,-37.837883,144.991123
3142,HAWKSBURN,VIC,RICHMOND DC,Delivery Area,-37.842378,145.001779
3142,TOORAK,VIC,RICHMOND DC,Delivery Area,-37.84216,145.017966
3145,CAULFIELD EAST,VIC,MOUNT WAVERLEY MDC (NEW),Delivery Area,-37.875412,145.041976
3145,CENTRAL PARK,VIC,MOUNT WAVERLEY MDC (NEW),Delivery Area,-37.866895,145.048737
3145,DARLING,VIC,MOUNT WAVERLEY MDC (NEW),Delivery Area,-37.877328,145.059305
3145,MALVERN EAST,VIC,MOUNT WAVERLEY MDC (NEW),Delivery Area,-37.87837,145.067892
3146,GLEN IRIS,VIC,BURWOOD DC,Delivery Area,-37.854687,145.067215
3147,ASHBURTON,VIC,BURWOOD DC,Delivery Area,-37.863393,145.07942
3147,ASHWOOD,VIC,BURWOOD DC,Delivery Area,-37.864686,145.093061
3148,CHADSTONE,VIC,MOUNT WAVERLEY MDC (NEW),Delivery Area,-37.886372,145.082527
3148,CHADSTONE CENTRE,VIC,MOUNT WAVERLEY MDC (NEW),Delivery Area,-37.886372,145.082527
3148,HOLMESGLEN,VIC,MOUNT WAVERLEY MDC (NEW),Delivery Area,-37.874223,145.091587
3149,MOUNT WAVERLEY,VIC,MOUNT WAVERLEY MDC (NEW),Delivery Area,-37.875273,145.128398
3149,PINEWOOD,VIC,MOUNT WAVERLEY MDC (NEW),Delivery Area,-37.891595,145.143314
3149,SYNDAL,VIC,MOUNT WAVERLEY MDC (NEW),Delivery Area,-37.87947,145.143233
3150,GLEN WAVERLEY,VIC,MOUNT WAVERLEY MDC (NEW),Delivery Area,-37.877631,145.166222
3150,WHEELERS HILL,VIC,MOUNT WAVERLEY MDC (NEW),Delivery Area,-37.909349,145.188659
3151,BURWOOD EAST,VIC,BURWOOD DC,Delivery Area,-37.858352,145.138553
3151,BURWOOD HEIGHTS,VIC,BURWOOD DC,Delivery Area,-37.852535,145.150335
3152,KNOX CITY CENTRE,VIC,FERNTREE GULLY DELIVERY CENTRE,Delivery Area,-37.869224,145.241382
3152,WANTIRNA,VIC,FERNTREE GULLY DELIVERY CENTRE,Delivery Area,-37.847915,145.228757
3152,WANTIRNA SOUTH,VIC,FERNTREE GULLY DELIVERY CENTRE,Delivery Area,-37.868979,145.235211
3153,BAYSWATER,VIC,BAYSWATER DC,Delivery Area,-37.84126,145.266725
3153,BAYSWATER NORTH,VIC,BAYSWATER DC,Delivery Area,-37.8303,145.275095
3154,THE BASIN,VIC,BAYSWATER DC,Delivery Area,-37.851467,145.307133
3155,BORONIA,VIC,BAYSWATER DC,Delivery Area,-37.861504,145.275762
3156,FERNTREE GULLY,VIC,FERNTREE GULLY DELIVERY CENTRE,Delivery Area,-37.883019,145.295404
3156,LYSTERFIELD,VIC,FERNTREE GULLY DELIVERY CENTRE,Delivery Area,-37.926533,145.303402
3156,LYSTERFIELD SOUTH,VIC,FERNTREE GULLY DELIVERY CENTRE,Delivery Area,-37.927092,145.291015
3156,MOUNTAIN GATE,VIC,FERNTREE GULLY DELIVERY CENTRE,Delivery Area,-37.890107,145.273576
3156,UPPER FERNTREE GULLY,VIC,FERNTREE GULLY DELIVERY CENTRE,Delivery Area,-37.893513,145.310777
3158,UPWEY,VIC,BELGRAVE DELIVERY CENTRE,Delivery Area,-37.903672,145.33131
3159,MENZIES CREEK,VIC,BELGRAVE DELIVERY CENTRE,Delivery Area,-37.921323,145.403546
3159,SELBY,VIC,BELGRAVE DELIVERY CENTRE,Delivery Area,-37.915182,145.372016
3160,BELGRAVE,VIC,BELGRAVE DELIVERY CENTRE,Delivery Area,-37.908422,145.355075
3160,BELGRAVE HEIGHTS,VIC,BELGRAVE DELIVERY CENTRE,Delivery Area,-37.926012,145.352597
3160,BELGRAVE SOUTH,VIC,BELGRAVE DELIVERY CENTRE,Delivery Area,-37.941795,145.356068
3160,TECOMA,VIC,BELGRAVE DELIVERY CENTRE,Delivery Area,-37.906626,145.343987
3161,CAULFIELD NORTH,VIC,BENTLEIGH EAST DC,Delivery Area,-37.901678,145.02357
3162,CAULFIELD,VIC,BENTLEIGH EAST DC,Delivery Area,-37.880479,145.026806
3162,CAULFIELD SOUTH,VIC,BENTLEIGH EAST DC,Delivery Area,-37.886903,145.021979
3162,HOPETOUN GARDENS,VIC,BENTLEIGH EAST DC,Delivery Area,-37.886719,145.010619
3163,CARNEGIE,VIC,BENTLEIGH EAST DC,Delivery Area,-37.889336,145.058121
3163,GLEN HUNTLY,VIC,BENTLEIGH EAST DC,Delivery Area,-37.889239,145.040629
3163,MURRUMBEENA,VIC,BENTLEIGH EAST DC,Delivery Area,-37.89069,145.067589
3164,DANDENONG SOUTH,VIC,DANDENONG SOUTH BC,Post Office Boxes,-38.02243,145.23738
3165,BENTLEIGH EAST,VIC,BENTLEIGH EAST DC,Delivery Area,-37.927402,145.059412
3165,COATESVILLE,VIC,BENTLEIGH EAST DC,Delivery Area,-37.92075,145.072839
3166,HUGHESDALE,VIC,MOUNT WAVERLEY MDC (NEW),Delivery Area,-37.895763,145.076545
3166,HUNTINGDALE,VIC,MOUNT WAVERLEY MDC (NEW),Delivery Area,-37.909347,145.103841
3166,OAKLEIGH,VIC,MOUNT WAVERLEY MDC (NEW),Delivery Area,-37.899854,145.087116
3166,OAKLEIGH EAST,VIC,MOUNT WAVERLEY MDC (NEW),Delivery Area,-37.900071,145.105574
3167,OAKLEIGH SOUTH,VIC,MOUNT WAVERLEY MDC (NEW),Delivery Area,-37.926986,145.0964
3168,CLAYTON,VIC,MOUNT WAVERLEY MDC (NEW),Delivery Area,-37.925488,145.119662
3168,NOTTING HILL,VIC,MOUNT WAVERLEY MDC (NEW),Delivery Area,-37.901596,145.145776
3169,CLARINDA,VIC,MOUNT WAVERLEY MDC (NEW),Delivery Area,-37.941228,145.10244
3169,CLAYTON SOUTH,VIC,MOUNT WAVERLEY MDC (NEW),Delivery Area,-37.939215,145.126625
3170,MULGRAVE,VIC,MOUNT WAVERLEY MDC (NEW),Delivery Area,-37.869611,145.102866
3170,WAVERLEY GARDENS,VIC,MOUNT WAVERLEY MDC (NEW),Delivery Area,-37.92246,145.189181
3171,SANDOWN VILLAGE,VIC,MOUNT WAVERLEY MDC (NEW),Delivery Area,-37.950802,145.15696
3171,SPRINGVALE,VIC,MOUNT WAVERLEY MDC (NEW),Delivery Area,-37.97103,145.148499
3172,DINGLEY VILLAGE,VIC,BRAESIDE DC,Delivery Area,-37.973323,145.119941
3172,SPRINGVALE SOUTH,VIC,BRAESIDE DC,Delivery Area,-37.97103,145.148499
3173,KEYSBOROUGH,VIC,BRAESIDE DC,Delivery Area,-37.989707,145.149037
3174,NOBLE PARK,VIC,MOUNT WAVERLEY MDC (NEW),Delivery Area,-37.967254,145.176167
3174,NOBLE PARK EAST,VIC,MOUNT WAVERLEY MDC (NEW),Delivery Area,-37.94488,145.17965
3174,NOBLE PARK NORTH,VIC,MOUNT WAVERLEY MDC (NEW),Delivery Area,-37.9547,145.192117
3175,BANGHOLME,VIC,DANDENONG DC,Delivery Area,-38.033107,145.179482
3175,DANDENONG,VIC,DANDENONG DC,Delivery Area,-37.987271,145.214317
3175,DANDENONG EAST,VIC,DANDENONG DC,Delivery Area,-38.13467,145.129955
3175,DANDENONG NORTH,VIC,DANDENONG DC,Delivery Area,-37.965724,145.205645
3175,DANDENONG SOUTH,VIC,DANDENONG DC,Delivery Area,-38.034031,145.201711
3175,DUNEARN,VIC,DANDENONG DC,Delivery Area,-37.967601,145.202509
3177,DOVETON,VIC,DANDENONG DC,Delivery Area,-37.995245,145.240156
3177,EUMEMMERRING,VIC,DANDENONG DC,Delivery Area,-37.997711,145.250273
3178,ROWVILLE,VIC,FERNTREE GULLY DELIVERY CENTRE,Delivery Area,-37.928005,145.235811
3179,SCORESBY,VIC,FERNTREE GULLY DELIVERY CENTRE,Delivery Area,-37.864883,145.26427
3180,KNOXFIELD,VIC,FERNTREE GULLY DELIVERY CENTRE,Delivery Area,-37.888895,145.248383
3181,PRAHRAN,VIC,RICHMOND DC,Delivery Area,-37.849577,144.993714
3181,PRAHRAN EAST,VIC,RICHMOND DC,Delivery Area,-37.855396,145.039566
3181,WINDSOR,VIC,RICHMOND DC,Delivery Area,-37.856159,144.9922
3182,ST KILDA,VIC,ST KILDA DC,Delivery Area,-37.867573,144.978814
3182,ST KILDA WEST,VIC,ST KILDA DC,Delivery Area,-37.860901,144.972523
3183,BALACLAVA,VIC,ST KILDA DC,Delivery Area,-37.869023,144.995478
3183,ST KILDA EAST,VIC,ST KILDA DC,Delivery Area,-37.866458,145.000047
3184,BRIGHTON ROAD,VIC,ST KILDA DC,Delivery Area,-37.882825,144.996354
3184,ELWOOD,VIC,ST KILDA DC,Delivery Area,-37.888121,144.985026
3185,ELSTERNWICK,VIC,ST KILDA DC,Delivery Area,-37.884724,145.004153
3185,GARDENVALE,VIC,ST KILDA DC,Delivery Area,-37.896915,145.005249
3185,RIPPONLEA,VIC,ST KILDA DC,Delivery Area,-37.876692,144.996194
3186,BRIGHTON,VIC,BRIGHTON DC,Delivery Area,-37.913149,144.991682
3186,BRIGHTON NORTH,VIC,BRIGHTON DC,Delivery Area,-37.903864,145.001899
3186,DENDY,VIC,BRIGHTON DC,Delivery Area,-37.919885,144.996826
3187,BRIGHTON EAST,VIC,BRIGHTON DC,Delivery Area,-37.904879,145.002603
3187,NORTH ROAD,VIC,BRIGHTON DC,Delivery Area,-37.90106,145.01669
3194,MENTONE,VIC,BRAESIDE DC,Delivery Area,-37.982859,145.0649
3194,MENTONE EAST,VIC,BRAESIDE DC,Delivery Area,-37.986195,145.03462
3194,MOORABBIN AIRPORT,VIC,BRAESIDE DC,Delivery Area,-37.977934,145.09892
3195,ASPENDALE,VIC,BRAESIDE DC,Delivery Area,-38.026479,145.101908
3195,ASPENDALE GARDENS,VIC,BRAESIDE DC,Delivery Area,-38.023456,145.118374
3195,BRAESIDE,VIC,BRAESIDE DC,Delivery Area,-38.008295,145.112478
3195,MORDIALLOC,VIC,BRAESIDE DC,Delivery Area,-38.007154,145.086849
3195,PARKDALE,VIC,BRAESIDE DC,Delivery Area,-37.992659,145.075479
3195,WATERWAYS,VIC,BRAESIDE DC,Delivery Area,-38.008051,145.110473
3196,BONBEACH,VIC,BRAESIDE DC,Delivery Area,-38.062472,145.119404
3196,CHELSEA,VIC,BRAESIDE DC,Delivery Area,-38.052346,145.115941
3196,CHELSEA HEIGHTS,VIC,BRAESIDE DC,Delivery Area,-38.045473,145.135901
3196,EDITHVALE,VIC,BRAESIDE DC,Delivery Area,-38.037415,145.107846
3205,SOUTH MELBOURNE,VIC,SOUTH MELBOURNE DC,Delivery Area,-37.93291,145.033718
3206,ALBERT PARK,VIC,SOUTH MELBOURNE DC,Delivery Area,-37.840705,144.95571
3206,MIDDLE PARK,VIC,SOUTH MELBOURNE DC,Delivery Area,-37.849721,144.965136
3207,GARDEN CITY,VIC,SOUTH MELBOURNE DC,Delivery Area,-37.829244,144.956207
3207,PORT MELBOURNE,VIC,SOUTH MELBOURNE DC,Delivery Area,-37.975682,145.030468
3335,PLUMPTON,VIC,MELTON DELIVERY,Delivery Area,-37.68584,144.685449
3335,ROCKBANK,VIC,MELTON DELIVERY,Delivery Area,-37.729119,144.650778
3337,KURUNJANG,VIC,MELTON DELIVERY,Delivery Area,-37.675127,144.58855
3337,MELTON,VIC,MELTON DELIVERY,Delivery Area,-37.683206,144.58315
3337,MELTON WEST,VIC,MELTON DELIVERY,Delivery Area,-37.684849,144.560691
3337,TOOLERN VALE,VIC,MELTON DELIVERY,Delivery Area,-37.605843,144.589792
3338,BROOKFIELD,VIC,MELTON DELIVERY,Delivery Area,-37.701172,144.540792
3338,EXFORD,VIC,MELTON DELIVERY,Delivery Area,-37.729899,144.548212
3338,EYNESBURY,VIC,MELTON DELIVERY,Delivery Area,-37.790039,144.56627
3338,MELTON SOUTH,VIC,MELTON DELIVERY,Delivery Area,-37.704323,144.574818
3782,AVONSLEIGH,VIC,BELGRAVE DELIVERY CENTRE,Delivery Area,-37.920702,145.467246
3782,CLEMATIS,VIC,BELGRAVE DELIVERY CENTRE,Delivery Area,-37.929232,145.423339
3782,EMERALD,VIC,BELGRAVE DELIVERY CENTRE,Delivery Area,-37.932085,145.44074
3782,MACCLESFIELD,VIC,BELGRAVE DELIVERY CENTRE,Delivery Area,-37.888403,145.487688
3783,GEMBROOK,VIC,BELGRAVE DELIVERY CENTRE,Delivery Area,-37.952497,145.550457
3785,TREMONT,VIC,BELGRAVE DELIVERY CENTRE,Delivery Area,-38.27059,144.491163
3786,FERNY CREEK,VIC,BELGRAVE DELIVERY CENTRE,Delivery Area,-37.881284,145.342274
3787,SASSAFRAS,VIC,BELGRAVE DELIVERY CENTRE,Delivery Area,-37.876027,145.36695
3787,SASSAFRAS GULLY,VIC,BELGRAVE DELIVERY CENTRE,Delivery Area,-37.894848,145.335854
3788,OLINDA,VIC,BELGRAVE DELIVERY CENTRE,Delivery Area,-37.85984,145.363835
3789,SHERBROOKE,VIC,BELGRAVE DELIVERY CENTRE,Delivery Area,-37.883737,145.364031
3791,KALLISTA,VIC,BELGRAVE DELIVERY CENTRE,Delivery Area,-37.900585,145.410171
3792,THE PATCH,VIC,BELGRAVE DELIVERY CENTRE,Delivery Area,-37.887353,145.392574
3793,MONBULK,VIC,BELGRAVE DELIVERY CENTRE,Delivery Area,-37.867678,145.408664
3800,MONASH UNIVERSITY,VIC,MOUNT WAVERLEY MDC (NEW),Delivery Area,-37.910545,145.134935
3802,ENDEAVOUR HILLS,VIC,DANDENONG DC,Delivery Area,-37.975281,145.254481
3803,HALLAM,VIC,DANDENONG DC,Delivery Area,-38.004302,145.269261
3804,NARRE WARREN EAST,VIC,NARRE WARREN DC,Delivery Area,-37.96602,145.363213
3804,NARRE WARREN NORTH,VIC,NARRE WARREN DC,Delivery Area,-37.981131,145.315271
3805,FOUNTAIN GATE,VIC,NARRE WARREN DC,Delivery Area,-38.021278,145.299771
3805,NARRE WARREN,VIC,NARRE WARREN DC,Delivery Area,-38.026383,145.306933
3805,NARRE WARREN SOUTH,VIC,NARRE WARREN DC,Delivery Area,-38.050061,145.298191
3806,BERWICK,VIC,NARRE WARREN DC,Delivery Area,-38.030467,145.344621
3806,HARKAWAY,VIC,NARRE WARREN DC,Delivery Area,-38.000318,145.341643
3807,BEACONSFIELD,VIC,NARRE WARREN DC,Delivery Area,-38.045159,145.36746
3807,GUYS HILL,VIC,NARRE WARREN DC,Delivery Area,-38.016778,145.386086
3910,LANGWARRIN,VIC,CRANBOURNE DC,Delivery Area,-38.153809,145.185851
3912,PEARCEDALE,VIC,SOMERVILLE DC,Delivery Area,-38.202617,145.232339
3912,SOMERVILLE,VIC,SOMERVILLE DC,Delivery Area,-38.223956,145.175798
3975,LYNBROOK,VIC,CRANBOURNE DC,Delivery Area,-38.050457,145.257531
3975,LYNDHURST,VIC,CRANBOURNE DC,Delivery Area,-38.053275,145.244343
3976,HAMPTON PARK,VIC,CRANBOURNE DC,Delivery Area,-38.032221,145.267863
3977,CANNONS CREEK,VIC,CRANBOURNE DC,Delivery Area,-38.212992,145.315447
3977,CRANBOURNE,VIC,CRANBOURNE DC,Delivery Area,-38.11122,145.268832
3977,CRANBOURNE EAST,VIC,CRANBOURNE DC,Delivery Area,-38.117857,145.320381
3977,CRANBOURNE NORTH,VIC,CRANBOURNE DC,Delivery Area,-38.082218,145.276538
3977,CRANBOURNE SOUTH,VIC,CRANBOURNE DC,Delivery Area,-38.145571,145.226226
3977,CRANBOURNE WEST,VIC,CRANBOURNE DC,Delivery Area,-38.109374,145.25241
3977,DEVON MEADOWS,VIC,CRANBOURNE DC,Delivery Area,-38.162501,145.319677
3977,JUNCTION VILLAGE,VIC,CRANBOURNE DC,Delivery Area,-38.138435,145.294077
3977,SANDHURST,VIC,CRANBOURNE DC,Delivery Area,-38.080718,145.209511
3977,SKYE,VIC,CRANBOURNE DC,Delivery Area,-38.1183,145.203099
